LEMUR-1                 
1 40044U 14033AL  26155.96498157  .00003119  00000+0  36224-3 0  9994
2 40044  97.7869 306.0433 0049645 117.6152 243.0117 14.85194863643651
LEMUR-2-GREENBERG       
1 42837U 17042N   26156.06209110  .00016190  00000+0  54295-3 0  9991
2 42837  97.3816 336.7466 0009658  55.2009 305.0139 15.30931926486530
LEMUR-2-ANDIS           
1 42838U 17042P   26155.07525170  .00023518  00000+0  70843-3 0  9998
2 42838  97.3677 335.9049 0009265  58.5132 301.7015 15.34295092486448
LEMUR-2-MONSON          
1 42839U 17042Q   26155.06224443  .00016668  00000+0  61840-3 0  9992
2 42839  97.4073 335.7437 0007407  50.3120 309.8772 15.27642419486161
LEMUR-2-FURIAUS         
1 42840U 17042R   26155.98184126  .00021244  00000+0  73595-3 0  9994
2 42840  97.3771 334.6496 0008591 106.6205 253.5979 15.29830923486349
LEMUR-2-PETERG          
1 42841U 17042S   26156.03010745  .00027833  00000+0  86294-3 0  9997
2 42841  97.3992 341.0456 0004219  40.9368 319.2190 15.33378035486572
LEMUR-2-DEMBITZ         
1 42842U 17042T   26156.06760249  .00015553  00000+0  53864-3 0  9995
2 42842  97.3825 337.7490 0007676  67.6733 292.5321 15.29912815486495
LEMUR-2-ZACHARY         
1 42845U 17042W   26155.98642881  .00046391  00000+0  84996-3 0  9993
2 42845  97.3611 347.3727 0003711  74.1941 285.9719 15.49172150487312
LEMUR-2-AMANDA-SVANTE   
1 48269U 21034B   26156.02834175  .00034350  00000+0  10584-2 0  9993
2 48269  97.5760 234.0002 0000892 268.8607  91.2533 15.33541007279192
LEMUR-2-SPECIAL-K       
1 48273U 21034F   26155.72710013  .00134550  00000+0  15811-2 0  9999
2 48273  97.5656 241.7174 0002667 238.8592 121.2404 15.60998083279740
LEMUR-2-EMBRIONOVIS     
1 56970U 23084AQ  26156.09557730  .00015530  00000+0  42733-3 0  9995
2 56970  97.6283 299.8348 0008602   6.4373 353.6979 15.37236101165829
LEMUR-2-DEVERILL-M-T    
1 57391U 23100F   26156.01522341  .00029949  00000+0  77245-3 0  9999
2 57391  99.4477 191.2652 0007408  88.0716 272.1371 15.39124101159377
LEMUR-2-BASS            
1 58259U 23174D   26156.01741255  .00019476  00000+0  44783-3 0  9996
2 58259  97.3845 240.5640 0006760 202.6266 157.4684 15.42678080143487
LEMUR-2-JK0903EM1407    
1 58336U 23174CJ  26155.24326317  .00028456  00000+0  49056-3 0  9990
2 58336  97.3910 245.3579 0005884 155.2357 204.9178 15.50993821143725
LEMUR-2-MJR092620       
1 58340U 23174CN  26155.72061434  .00021979  00000+0  47661-3 0  9997
2 58340  97.3973 245.5256 0006869 154.4028 205.7562 15.44399087143726
LEMUR-2-NIMBUS2000      
1 58899U 24022A   26155.14651264  .00020317  00000+0  51721-3 0  9998
2 58899  97.4115   4.9878 0009651 156.4051 203.7639 15.39561973130268
LEMUR-2-VALHALLA        
1 58900U 24022B   26155.14008384  .00018151  00000+0  46694-3 0  9996
2 58900  97.4114   4.9787 0010293 152.8565 207.3220 15.39258151130260
LEMUR-2-OBA-NI-JESU     
1 58902U 24022D   26155.14689709  .00757039  27408-3  13632-2 0  9999
2 58902  97.3761  19.2455 0004264 174.2396 185.8933 16.01665376131231
LEMUR-2-CAEL            
1 58903U 24022E   26155.09585221  .00019089  00000+0  47114-3 0  9992
2 58903  97.4097   5.8472 0008921 136.4150 223.7802 15.40526305130323
LEMUR-2-JOHNNYTRUONG    
1 59146U 24043BA  26155.96262176  .00041553  00000+0  52308-3 0  9994
2 59146  97.5377 306.9181 0004360 213.6895 146.4084 15.59530461126139
LEMUR-2-TOMATOKECHUP    
1 60471U 24149D   26155.92419552  .00012593  00000+0  36408-3 0  9997
2 60471  97.3797 237.9426 0000297 225.0802 135.0417 15.35767551100289
LEMUR-2-STELLA          
1 60533U 24149BT  26155.17398638  .00013309  00000+0  78866-3 0  9994
2 60533  97.6733 237.5749 0001851 101.9080 258.2357 15.11514040 98534
LEMUR-2-MARHISYAM       
1 60536U 24149BW  26155.74564769  .00012328  00000+0  74142-3 0  9993
2 60536  97.6879 238.5856 0003087 140.1867 219.9590 15.10994084 98609
LEMUR-2-AHMED-ASRAR     
1 60576U 24149DN  26156.05627947  .00015334  00000+0  88520-3 0  9995
2 60576  97.6998 240.9433 0002659  70.4526 289.6991 15.12426387 98735
LEMUR-2-LLOYD           
1 60577U 24149DP  26156.04100119  .00013321  00000+0  84567-3 0  9993
2 60577  97.6743 237.1657 0004172 173.8105 186.3176 15.08994533 98560
LEMUR-2-SQUIRRELCOMM    
1 60578U 24149DQ  26155.70677593  .00008118  00000+0  54578-3 0  9998
2 60578  97.6704 236.6582 0006734  95.7677 264.4318 15.07003704 98523
LEMUR-2-SIERRINI        
1 60579U 24149DR  26156.03151182  .00013612  00000+0  82506-3 0  9994
2 60579  97.6843 238.5729 0004740 202.8711 157.2308 15.10681655 98627
LEMUR-2-WILSON          
1 62694U 25009CP  26155.17848511  .00003207  00000+0  29759-3 0  9993
2 62694  97.7030 233.8721 0004952  85.9541 274.2245 14.95111131 75413
LEMUR-2-STAR-FOX        
1 62696U 25009CR  26155.70493404  .00009402  00000+0  71578-3 0  9990
2 62696  97.6939 237.4054 0002534 146.1713 213.9673 15.02303576 75685
LEMUR-2-ARIANNA         
1 62699U 25009CU  26155.17025802  .00010341  00000+0  78729-3 0  9996
2 62699  97.6880 236.6595 0002780 156.9778 203.1572 15.02275535 75601
